{
  "type": "FeatureCollection",
  "features": [
    {
      "type": "Feature",
      "properties": {
        "norad_id": 66602,
        "name": "STARLINK-36050",
        "group": "last-30-days",
        "lat": -3.8972143366148275,
        "lon": -25.84882571284944,
        "alt_km": 443.9694070088135,
        "timestamp": "2025-12-20T03:42:46.118591+00:00",
        "meta_object_name": "STARLINK-36050",
        "meta_object_id": "2025-270Q",
        "meta_epoch": "2025-12-19T17:34:32.506752",
        "meta_mean_motion": 15.40725936,
        "meta_eccentricity": 0.000163,
        "meta_inclination": 42.9991,
        "meta_ra_of_asc_node": 152.3934,
        "meta_arg_of_pericenter": 264.4094,
        "meta_mean_anomaly": 95.6576,
        "meta_ephemeris_type": 0,
        "meta_classification_type": "U",
        "meta_norad_cat_id": 66602,
        "meta_element_set_no": 999,
        "meta_rev_at_epoch": 532,
        "meta_bstar": 0.00096254,
        "meta_mean_motion_dot": 0.00040151,
        "meta_mean_motion_ddot": 0,
        "tle_line1": "1 66602U 25270Q   25353.73232068  .00040151  00000+0  96254-3 0  9994",
        "tle_line2": "2 66602  42.9991 152.3934 0001630 264.4094  95.6576 15.40725936  5322"
      },
      "geometry": {
        "type": "Point",
        "coordinates": [
          -25.84882571284944,
          -3.8972143366148275
        ]
      }
    },
    {
      "type": "Feature",
      "properties": {
        "norad_id": 66603,
        "name": "STARLINK-36048",
        "group": "last-30-days",
        "lat": -37.21764732973656,
        "lon": 95.0951115011587,
        "alt_km": 446.23611537240686,
        "timestamp": "2025-12-20T03:42:46.118613+00:00",
        "meta_object_name": "STARLINK-36048",
        "meta_object_id": "2025-270R",
        "meta_epoch": "2025-12-19T20:00:01.999008",
        "meta_mean_motion": 15.40665215,
        "meta_eccentricity": 0.0001409,
        "meta_inclination": 42.9997,
        "meta_ra_of_asc_node": 151.5425,
        "meta_arg_of_pericenter": 278.8061,
        "meta_mean_anomaly": 34.2665,
        "meta_ephemeris_type": 0,
        "meta_classification_type": "U",
        "meta_norad_cat_id": 66603,
        "meta_element_set_no": 999,
        "meta_rev_at_epoch": 544,
        "meta_bstar": 0.0013746,
        "meta_mean_motion_dot": 0.00057484,
        "meta_mean_motion_ddot": 0,
        "tle_line1": "1 66603U 25270R   25353.83335647  .00057484  00000+0  13746-2 0  9994",
        "tle_line2": "2 66603  42.9997 151.5425 0001409 278.8061  34.2665 15.40665215  5446"
      },
      "geometry": {
        "type": "Point",
        "coordinates": [
          95.0951115011587,
          -37.21764732973656
        ]
      }
    },
    {
      "type": "Feature",
      "properties": {
        "norad_id": 66604,
        "name": "STARLINK-35977",
        "group": "last-30-days",
        "lat": -24.61494997706729,
        "lon": 120.18004298490132,
        "alt_km": 445.4395045397787,
        "timestamp": "2025-12-20T03:42:46.118626+00:00",
        "meta_object_name": "STARLINK-35977",
        "meta_object_id": "2025-270S",
        "meta_epoch": "2025-12-19T20:00:01.999008",
        "meta_mean_motion": 15.40663057,
        "meta_eccentricity": 0.0001849,
        "meta_inclination": 42.9999,
        "meta_ra_of_asc_node": 151.4818,
        "meta_arg_of_pericenter": 278.2578,
        "meta_mean_anomaly": 59.7027,
        "meta_ephemeris_type": 0,
        "meta_classification_type": "U",
        "meta_norad_cat_id": 66604,
        "meta_element_set_no": 999,
        "meta_rev_at_epoch": 554,
        "meta_bstar": 0.001347,
        "meta_mean_motion_dot": 0.00056311,
        "meta_mean_motion_ddot": 0,
        "tle_line1": "1 66604U 25270S   25353.83335647  .00056311  00000+0  13470-2 0  9997",
        "tle_line2": "2 66604  42.9999 151.4818 0001849 278.2578  59.7027 15.40663057  5546"
      },
      "geometry": {
        "type": "Point",
        "coordinates": [
          120.18004298490132,
          -24.61494997706729
        ]
      }
    },
    {
      "type": "Feature",
      "properties": {
        "norad_id": 66605,
        "name": "STARLINK-36052",
        "group": "last-30-days",
        "lat": 24.204772736928515,
        "lon": 178.28984070264715,
        "alt_km": 440.7880206279333,
        "timestamp": "2025-12-20T03:42:46.118636+00:00",
        "meta_object_name": "STARLINK-36052",
        "meta_object_id": "2025-270T",
        "meta_epoch": "2025-12-19T20:00:01.999008",
        "meta_mean_motion": 15.4065248,
        "meta_eccentricity": 0.0002114,
        "meta_inclination": 43,
        "meta_ra_of_asc_node": 151.3003,
        "meta_arg_of_pericenter": 281.6682,
        "meta_mean_anomaly": 130.9166,
        "meta_ephemeris_type": 0,
        "meta_classification_type": "U",
        "meta_norad_cat_id": 66605,
        "meta_element_set_no": 999,
        "meta_rev_at_epoch": 554,
        "meta_bstar": 0.0016079,
        "meta_mean_motion_dot": 0.00067353,
        "meta_mean_motion_ddot": 0,
        "tle_line1": "1 66605U 25270T   25353.83335647  .00067353  00000+0  16079-2 0  9994",
        "tle_line2": "2 66605  43.0000 151.3003 0002114 281.6682 130.9166 15.40652480  5541"
      },
      "geometry": {
        "type": "Point",
        "coordinates": [
          178.28984070264715,
          24.204772736928515
        ]
      }
    },
    {
      "type": "Feature",
      "properties": {
        "norad_id": 66606,
        "name": "STARLINK-36063",
        "group": "last-30-days",
        "lat": 41.282191642985836,
        "lon": -101.14770582990316,
        "alt_km": 409.2679835842764,
        "timestamp": "2025-12-20T03:42:46.118654+00:00",
        "meta_object_name": "STARLINK-36063",
        "meta_object_id": "2025-270U",
        "meta_epoch": "2025-12-19T11:48:20.511648",
        "meta_mean_motion": 15.50662232,
        "meta_eccentricity": 0.0001816,
        "meta_inclination": 42.9987,
        "meta_ra_of_asc_node": 153.1595,
        "meta_arg_of_pericenter": 282.0515,
        "meta_mean_anomaly": 78.0141,
        "meta_ephemeris_type": 0,
        "meta_classification_type": "U",
        "meta_norad_cat_id": 66606,
        "meta_element_set_no": 999,
        "meta_rev_at_epoch": 539,
        "meta_bstar": 0.00079676,
        "meta_mean_motion_dot": 0.0004682,
        "meta_mean_motion_ddot": 0,
        "tle_line1": "1 66606U 25270U   25353.49190407  .00046820  00000+0  79676-3 0  9999",
        "tle_line2": "2 66606  42.9987 153.1595 0001816 282.0515  78.0141 15.50662232  5393"
      },
      "geometry": {
        "type": "Point",
        "coordinates": [
          -101.14770582990316,
          41.282191642985836
        ]
      }
    },
    {
      "type": "Feature",
      "properties": {
        "norad_id": 66607,
        "name": "STARLINK-35993",
        "group": "last-30-days",
        "lat": 31.197071040863324,
        "lon": -170.05196013182703,
        "alt_km": 439.8358568759004,
        "timestamp": "2025-12-20T03:42:46.118666+00:00",
        "meta_object_name": "STARLINK-35993",
        "meta_object_id": "2025-270V",
        "meta_epoch": "2025-12-19T20:00:01.999008",
        "meta_mean_motion": 15.40644248,
        "meta_eccentricity": 0.00017,
        "meta_inclination": 42.9999,
        "meta_ra_of_asc_node": 151.2708,
        "meta_arg_of_pericenter": 278.1531,
        "meta_mean_anomaly": 146.9099,
        "meta_ephemeris_type": 0,
        "meta_classification_type": "U",
        "meta_norad_cat_id": 66607,
        "meta_element_set_no": 999,
        "meta_rev_at_epoch": 544,
        "meta_bstar": 0.0017192,
        "meta_mean_motion_dot": 0.00072061,
        "meta_mean_motion_ddot": 0,
        "tle_line1": "1 66607U 25270V   25353.83335647  .00072061  00000+0  17192-2 0  9995",
        "tle_line2": "2 66607  42.9999 151.2708 0001700 278.1531 146.9099 15.40644248  5447"
      },
      "geometry": {
        "type": "Point",
        "coordinates": [
          -170.05196013182703,
          31.197071040863324
        ]
      }
    },
    {
      "type": "Feature",
      "properties": {
        "norad_id": 66608,
        "name": "STARLINK-36036",
        "group": "last-30-days",
        "lat": 40.87841541578903,
        "lon": -98.98866962000548,
        "alt_km": 409.196434449148,
        "timestamp": "2025-12-20T03:42:46.118676+00:00",
        "meta_object_name": "STARLINK-36036",
        "meta_object_id": "2025-270W",
        "meta_epoch": "2025-12-19T11:47:53.026080",
        "meta_mean_motion": 15.50612484,
        "meta_eccentricity": 0.0001538,
        "meta_inclination": 42.999,
        "meta_ra_of_asc_node": 153.1562,
        "meta_arg_of_pericenter": 266.4602,
        "meta_mean_anomaly": 93.6082,
        "meta_ephemeris_type": 0,
        "meta_classification_type": "U",
        "meta_norad_cat_id": 66608,
        "meta_element_set_no": 999,
        "meta_rev_at_epoch": 523,
        "meta_bstar": 0.0010303,
        "meta_mean_motion_dot": 0.00060643,
        "meta_mean_motion_ddot": 0,
        "tle_line1": "1 66608U 25270W   25353.49158595  .00060643  00000+0  10303-2 0  9993",
        "tle_line2": "2 66608  42.9990 153.1562 0001538 266.4602  93.6082 15.50612484  5231"
      },
      "geometry": {
        "type": "Point",
        "coordinates": [
          -98.98866962000548,
          40.87841541578903
        ]
      }
    }
  ]
}